[{"OBJECT_NAME":"NUSAT-48 (HENRIETTA LEAVITT)","OBJECT_ID":"2024-149AG","EPOCH":"2026-03-09T19:19:17.269536","MEAN_MOTION":15.29812597,"ECCENTRICITY":0.00027538,"INCLINATION":97.3923,"RA_OF_ASC_NODE":150.8264,"ARG_OF_PERICENTER":263.3026,"MEAN_ANOMALY":96.7901,"EPHEMERIS_TYPE":0,"CLASSIFICATION_TYPE":"U","NORAD_CAT_ID":60498,"ELEMENT_SET_NO":999,"REV_AT_EPOCH":8694,"BSTAR":0.00045211745,"MEAN_MOTION_DOT":0.00012988,"MEAN_MOTION_DDOT":0},{"OBJECT_NAME":"STARLINK-33671","OBJECT_ID":"2025-057P","EPOCH":"2026-03-09T21:46:22.643328","MEAN_MOTION":15.275876,"ECCENTRICITY":8.176e-5,"INCLINATION":42.9992,"RA_OF_ASC_NODE":18.9869,"ARG_OF_PERICENTER":116.2028,"MEAN_ANOMALY":243.8908,"EPHEMERIS_TYPE":0,"CLASSIFICATION_TYPE":"U","NORAD_CAT_ID":63320,"ELEMENT_SET_NO":999,"REV_AT_EPOCH":5593,"BSTAR":0.00097814194,"MEAN_MOTION_DOT":0.00026758,"MEAN_MOTION_DDOT":0}]
